STARLINK-1927_new
1 17181C 20088BM  21326.07850449  .00002280  00000-0  15283-3 0  3268
2 17181  53.0536 123.3846 0001236  87.2689 303.5207 15.06385843    18
STARLINK-1927_old
1 27181C 20088BM  21325.12554349  .00001362  00000-0  91321-4 0  3250
2 27181  53.0535 127.6623 0001275  85.6742 174.3637 15.06381380    15
